[{"OBJECT_NAME":"STARLINK-36041","OBJECT_ID":"2025-278H","EPOCH":"2026-03-09T03:34:52.481856","MEAN_MOTION":15.27568603,"ECCENTRICITY":0.00010371,"INCLINATION":42.9985,"RA_OF_ASC_NODE":117.6592,"ARG_OF_PERICENTER":258.8643,"MEAN_ANOMALY":101.2092,"EPHEMERIS_TYPE":0,"CLASSIFICATION_TYPE":"U","NORAD_CAT_ID":66798,"ELEMENT_SET_NO":999,"REV_AT_EPOCH":1512,"BSTAR":0.0012472554,"MEAN_MOTION_DOT":0.00034207,"MEAN_MOTION_DDOT":0},{"OBJECT_NAME":"CZ-4B DEB","OBJECT_ID":"1999-057H","EPOCH":"2026-03-09T17:25:29.363520","MEAN_MOTION":15.25756771,"ECCENTRICITY":0.00339549,"INCLINATION":98.6728,"RA_OF_ASC_NODE":149.1557,"ARG_OF_PERICENTER":175.409,"MEAN_ANOMALY":184.7463,"EPHEMERIS_TYPE":0,"CLASSIFICATION_TYPE":"U","NORAD_CAT_ID":26121,"ELEMENT_SET_NO":999,"REV_AT_EPOCH":41150,"BSTAR":0.00075758105,"MEAN_MOTION_DOT":0.00019602,"MEAN_MOTION_DDOT":0}]
